SL-16 R/B               
1 25400U 98043G   26052.73433301  .00000064  00000+0  45850-4 0  9999
2 25400  98.8227   5.9874 0010845  63.2725 296.9564 14.26045685436718
SL-16 R/B               
1 25407U 98045B   26052.68073642  .00000039  00000+0  43555-4 0  9992
2 25407  71.0098 215.2384 0005900  35.2135 324.9377 14.16191133424839
ISS (ZARYA)             
1 25544U 98067A   26052.57165168  .00010573  00000+0  20534-3 0  9996
2 25544  51.6321 152.0270 0008521 119.1208 241.0634 15.48184707553834
CZ-4B R/B               
1 25732U 99025C   26052.73128318  .00000025  00000+0  32646-4 0  9993
2 25732  98.6661  97.3883 0037600  32.3521  78.7798 14.18261866385901
OKEAN-O                 
1 25860U 99039A   26052.69978021  .00000575  00000+0  82251-4 0  9996
2 25860  97.9480 112.7511 0001650  78.6147 281.5250 14.80307084432022
SL-16 R/B               
1 25861U 99039B   26052.69473623  .00000466  00000+0  65926-4 0  9994
2 25861  98.0003 111.8123 0013700 312.7825  47.2234 14.81706815434497
DELTA 2 R/B             
1 25876U 99041E   26052.30087660  .00001599  00000+0  29496-3 0  9992
2 25876  51.7661   6.7306 0502218 300.0387  55.1625 14.11775044360712
HELIOS 1B               
1 25977U 99064A   26052.70583486  .00001570  00000+0  17907-3 0  9993
2 25977  98.1712 314.4784 0002385  96.6994 263.4493 14.87625666682886
TERRA                   
1 25994U 99068A   26052.82512609  .00000355  00000+0  81468-4 0  9992
2 25994  97.9629 106.8632 0001567 195.8927 219.2409 14.60995784392766
SL-16 R/B               
1 26070U 00006B   26052.62133316  .00000101  00000+0  75658-4 0  9997
2 26070  71.0022 131.6249 0017790 212.4120 147.5912 14.15818701346289
TITAN 4B R/B            
1 26474U 00047B   26052.66120258  .00002836  00000+0  18254-3 0  9990
2 26474  67.9877  85.5780 0037618  54.7311 305.7347 15.09404678390496
ENVISAT                 
1 27386U 02009A   26052.81968631  .00000108  00000+0  48888-4 0  9992
2 27386  98.3701   6.7976 0001349  86.5831 289.4333 14.39030351256890
