CCSDS_OMM_VERS = 2.0
CREATION_DATE  = 
ORIGINATOR     = 

OBJECT_NAME    = SL-16 R/B
OBJECT_ID      = 1998-043G
CENTER_NAME    = EARTH
REF_FRAME      = TEME
TIME_SYSTEM    = UTC
MEAN_ELEMENT_THEORY = SGP/SGP4

EPOCH          = 2026-02-21T17:37:26.372064
MEAN_MOTION    = 14.26045685
ECCENTRICITY   = .0010845
INCLINATION    = 98.8227
RA_OF_ASC_NODE = 5.9874
ARG_OF_PERICENTER = 63.2725
MEAN_ANOMALY   = 296.9564

EPHEMERIS_TYPE = 0
CLASSIFICATION_TYPE = U
NORAD_CAT_ID   = 25400
ELEMENT_SET_NO = 999
REV_AT_EPOCH   = 43671
BSTAR          = .4585E-4
MEAN_MOTION_DOT = .64E-6
MEAN_MOTION_DDOT = 0

CCSDS_OMM_VERS = 2.0
CREATION_DATE  = 
ORIGINATOR     = 

OBJECT_NAME    = SL-16 R/B
OBJECT_ID      = 1998-045B
CENTER_NAME    = EARTH
REF_FRAME      = TEME
TIME_SYSTEM    = UTC
MEAN_ELEMENT_THEORY = SGP/SGP4

EPOCH          = 2026-02-21T16:20:15.626688
MEAN_MOTION    = 14.16191133
ECCENTRICITY   = .00059
INCLINATION    = 71.0098
RA_OF_ASC_NODE = 215.2384
ARG_OF_PERICENTER = 35.2135
MEAN_ANOMALY   = 324.9377

EPHEMERIS_TYPE = 0
CLASSIFICATION_TYPE = U
NORAD_CAT_ID   = 25407
ELEMENT_SET_NO = 999
REV_AT_EPOCH   = 42483
BSTAR          = .43555E-4
MEAN_MOTION_DOT = .39E-6
MEAN_MOTION_DDOT = 0

CCSDS_OMM_VERS = 2.0
CREATION_DATE  = 
ORIGINATOR     = 

OBJECT_NAME    = ISS (ZARYA)
OBJECT_ID      = 1998-067A
CENTER_NAME    = EARTH
REF_FRAME      = TEME
TIME_SYSTEM    = UTC
MEAN_ELEMENT_THEORY = SGP/SGP4

EPOCH          = 2026-02-21T13:43:10.705152
MEAN_MOTION    = 15.48184707
ECCENTRICITY   = .0008521
INCLINATION    = 51.6321
RA_OF_ASC_NODE = 152.0270
ARG_OF_PERICENTER = 119.1208
MEAN_ANOMALY   = 241.0634

EPHEMERIS_TYPE = 0
CLASSIFICATION_TYPE = U
NORAD_CAT_ID   = 25544
ELEMENT_SET_NO = 999
REV_AT_EPOCH   = 55383
BSTAR          = .20534E-3
MEAN_MOTION_DOT = .10573E-3
MEAN_MOTION_DDOT = 0

CCSDS_OMM_VERS = 2.0
CREATION_DATE  = 
ORIGINATOR     = 

OBJECT_NAME    = CZ-4B R/B
OBJECT_ID      = 1999-025C
CENTER_NAME    = EARTH
REF_FRAME      = TEME
TIME_SYSTEM    = UTC
MEAN_ELEMENT_THEORY = SGP/SGP4

EPOCH          = 2026-02-21T17:33:02.866752
MEAN_MOTION    = 14.18261866
ECCENTRICITY   = .00376
INCLINATION    = 98.6661
RA_OF_ASC_NODE = 97.3883
ARG_OF_PERICENTER = 32.3521
MEAN_ANOMALY   = 78.7798

EPHEMERIS_TYPE = 0
CLASSIFICATION_TYPE = U
NORAD_CAT_ID   = 25732
ELEMENT_SET_NO = 999
REV_AT_EPOCH   = 38590
BSTAR          = .32646E-4
MEAN_MOTION_DOT = .25E-6
MEAN_MOTION_DDOT = 0

CCSDS_OMM_VERS = 2.0
CREATION_DATE  = 
ORIGINATOR     = 

OBJECT_NAME    = OKEAN-O
OBJECT_ID      = 1999-039A
CENTER_NAME    = EARTH
REF_FRAME      = TEME
TIME_SYSTEM    = UTC
MEAN_ELEMENT_THEORY = SGP/SGP4

EPOCH          = 2026-02-21T16:47:41.010144
MEAN_MOTION    = 14.80307084
ECCENTRICITY   = .000165
INCLINATION    = 97.9480
RA_OF_ASC_NODE = 112.7511
ARG_OF_PERICENTER = 78.6147
MEAN_ANOMALY   = 281.5250

EPHEMERIS_TYPE = 0
CLASSIFICATION_TYPE = U
NORAD_CAT_ID   = 25860
ELEMENT_SET_NO = 999
REV_AT_EPOCH   = 43202
BSTAR          = .82251E-4
MEAN_MOTION_DOT = .575E-5
MEAN_MOTION_DDOT = 0

CCSDS_OMM_VERS = 2.0
CREATION_DATE  = 
ORIGINATOR     = 

OBJECT_NAME    = SL-16 R/B
OBJECT_ID      = 1999-039B
CENTER_NAME    = EARTH
REF_FRAME      = TEME
TIME_SYSTEM    = UTC
MEAN_ELEMENT_THEORY = SGP/SGP4

EPOCH          = 2026-02-21T16:40:25.210272
MEAN_MOTION    = 14.81706815
ECCENTRICITY   = .00137
INCLINATION    = 98.0003
RA_OF_ASC_NODE = 111.8123
ARG_OF_PERICENTER = 312.7825
MEAN_ANOMALY   = 47.2234

EPHEMERIS_TYPE = 0
CLASSIFICATION_TYPE = U
NORAD_CAT_ID   = 25861
ELEMENT_SET_NO = 999
REV_AT_EPOCH   = 43449
BSTAR          = .65926E-4
MEAN_MOTION_DOT = .466E-5
MEAN_MOTION_DDOT = 0

CCSDS_OMM_VERS = 2.0
CREATION_DATE  = 
ORIGINATOR     = 

OBJECT_NAME    = DELTA 2 R/B
OBJECT_ID      = 1999-041E
CENTER_NAME    = EARTH
REF_FRAME      = TEME
TIME_SYSTEM    = UTC
MEAN_ELEMENT_THEORY = SGP/SGP4

EPOCH          = 2026-02-21T07:13:15.738240
MEAN_MOTION    = 14.11775044
ECCENTRICITY   = .0502218
INCLINATION    = 51.7661
RA_OF_ASC_NODE = 6.7306
ARG_OF_PERICENTER = 300.0387
MEAN_ANOMALY   = 55.1625

EPHEMERIS_TYPE = 0
CLASSIFICATION_TYPE = U
NORAD_CAT_ID   = 25876
ELEMENT_SET_NO = 999
REV_AT_EPOCH   = 36071
BSTAR          = .29496E-3
MEAN_MOTION_DOT = .1599E-4
MEAN_MOTION_DDOT = 0

CCSDS_OMM_VERS = 2.0
CREATION_DATE  = 
ORIGINATOR     = 

OBJECT_NAME    = HELIOS 1B
OBJECT_ID      = 1999-064A
CENTER_NAME    = EARTH
REF_FRAME      = TEME
TIME_SYSTEM    = UTC
MEAN_ELEMENT_THEORY = SGP/SGP4

EPOCH          = 2026-02-21T16:56:24.131904
MEAN_MOTION    = 14.87625666
ECCENTRICITY   = .0002385
INCLINATION    = 98.1712
RA_OF_ASC_NODE = 314.4784
ARG_OF_PERICENTER = 96.6994
MEAN_ANOMALY   = 263.4493

EPHEMERIS_TYPE = 0
CLASSIFICATION_TYPE = U
NORAD_CAT_ID   = 25977
ELEMENT_SET_NO = 999
REV_AT_EPOCH   = 68288
BSTAR          = .17907E-3
MEAN_MOTION_DOT = .157E-4
MEAN_MOTION_DDOT = 0

CCSDS_OMM_VERS = 2.0
CREATION_DATE  = 
ORIGINATOR     = 

OBJECT_NAME    = TERRA
OBJECT_ID      = 1999-068A
CENTER_NAME    = EARTH
REF_FRAME      = TEME
TIME_SYSTEM    = UTC
MEAN_ELEMENT_THEORY = SGP/SGP4

EPOCH          = 2026-02-21T19:48:10.894176
MEAN_MOTION    = 14.60995784
ECCENTRICITY   = .0001567
INCLINATION    = 97.9629
RA_OF_ASC_NODE = 106.8632
ARG_OF_PERICENTER = 195.8927
MEAN_ANOMALY   = 219.2409

EPHEMERIS_TYPE = 0
CLASSIFICATION_TYPE = U
NORAD_CAT_ID   = 25994
ELEMENT_SET_NO = 999
REV_AT_EPOCH   = 39276
BSTAR          = .81468E-4
MEAN_MOTION_DOT = .355E-5
MEAN_MOTION_DDOT = 0

CCSDS_OMM_VERS = 2.0
CREATION_DATE  = 
ORIGINATOR     = 

OBJECT_NAME    = SL-16 R/B
OBJECT_ID      = 2000-006B
CENTER_NAME    = EARTH
REF_FRAME      = TEME
TIME_SYSTEM    = UTC
MEAN_ELEMENT_THEORY = SGP/SGP4

EPOCH          = 2026-02-21T14:54:43.185024
MEAN_MOTION    = 14.15818701
ECCENTRICITY   = .001779
INCLINATION    = 71.0022
RA_OF_ASC_NODE = 131.6249
ARG_OF_PERICENTER = 212.4120
MEAN_ANOMALY   = 147.5912

EPHEMERIS_TYPE = 0
CLASSIFICATION_TYPE = U
NORAD_CAT_ID   = 26070
ELEMENT_SET_NO = 999
REV_AT_EPOCH   = 34628
BSTAR          = .75658E-4
MEAN_MOTION_DOT = .101E-5
MEAN_MOTION_DDOT = 0

CCSDS_OMM_VERS = 2.0
CREATION_DATE  = 
ORIGINATOR     = 

OBJECT_NAME    = TITAN 4B R/B
OBJECT_ID      = 2000-047B
CENTER_NAME    = EARTH
REF_FRAME      = TEME
TIME_SYSTEM    = UTC
MEAN_ELEMENT_THEORY = SGP/SGP4

EPOCH          = 2026-02-21T15:52:07.902912
MEAN_MOTION    = 15.09404678
ECCENTRICITY   = .0037618
INCLINATION    = 67.9877
RA_OF_ASC_NODE = 85.5780
ARG_OF_PERICENTER = 54.7311
MEAN_ANOMALY   = 305.7347

EPHEMERIS_TYPE = 0
CLASSIFICATION_TYPE = U
NORAD_CAT_ID   = 26474
ELEMENT_SET_NO = 999
REV_AT_EPOCH   = 39049
BSTAR          = .18254E-3
MEAN_MOTION_DOT = .2836E-4
MEAN_MOTION_DDOT = 0

CCSDS_OMM_VERS = 2.0
CREATION_DATE  = 
ORIGINATOR     = 

OBJECT_NAME    = ENVISAT
OBJECT_ID      = 2002-009A
CENTER_NAME    = EARTH
REF_FRAME      = TEME
TIME_SYSTEM    = UTC
MEAN_ELEMENT_THEORY = SGP/SGP4

EPOCH          = 2026-02-21T19:40:20.897184
MEAN_MOTION    = 14.39030351
ECCENTRICITY   = .0001349
INCLINATION    = 98.3701
RA_OF_ASC_NODE = 6.7976
ARG_OF_PERICENTER = 86.5831
MEAN_ANOMALY   = 289.4333

EPHEMERIS_TYPE = 0
CLASSIFICATION_TYPE = U
NORAD_CAT_ID   = 27386
ELEMENT_SET_NO = 999
REV_AT_EPOCH   = 25689
BSTAR          = .48888E-4
MEAN_MOTION_DOT = .108E-5
MEAN_MOTION_DDOT = 0

